STARLINK-36191          
1 67023U 25293W   26081.37118721  .00005454  00000+0  46440-3 0  9994
2 67023  70.0014  62.6299 0003180 270.6366  89.4429 14.98341067 16789
STARLINK-36192          
1 67024U 25293X   26081.95531668  .00000020  00000+0  94686-5 0  9999
2 67024  70.0016  61.0548 0002958 270.7469  89.3351 14.98330109 16877
STARLINK-36178          
1 67025U 25293Y   26081.93862019  .00002120  00000+0  18538-3 0  9998
2 67025  70.0032  60.9951 0002642 268.5426  91.5430 14.98340468 16872
STARLINK-36176          
1 67026U 25293Z   26081.91774769  .00004098  00000+0  35100-3 0  9991
2 67026  70.0022  60.9233 0002487 271.7037  88.3837 14.98335409 16869
STARLINK-36171          
1 67027U 25293AA  26081.92192604  .00004353  00000+0  37234-3 0  9999
2 67027  70.0054  60.9418 0002102 278.1341  81.9580 14.98336578 16876
STARLINK-36132          
1 67028U 25293AB  26081.96783452  .00005211  00000+0  44403-3 0  9991
2 67028  70.0026  61.0974 0003631 257.3513 102.7240 14.98341280 16874
STARLINK-36190          
1 67029U 25293AC  26081.30857915 -.00005701  00000+0 -47040-3 0  9992
2 67029  70.0013  62.8126 0003017 272.9782  87.1032 14.98329689 16771
STARLINK-36138          
1 67030U 25294A   26080.95394853  .00043005  00000+0  15611-2 0  9997
2 67030  43.0032 328.9249 0001646 250.6353 109.4321 15.27624873 16673
STARLINK-36150          
1 67031U 25294B   26081.37053485  .00021646  00000+0  79360-3 0  9997
2 67031  42.9990 326.0245 0002312 274.8359  85.2229 15.27587765 16749
STARLINK-36131          
1 67032U 25294C   26081.97057924  .00008361  00000+0  31297-3 0  9992
2 67032  43.0017 322.7938 0002061 274.9431  85.1185 15.27584420 16832
STARLINK-36137          
1 67033U 25294D   26081.96672689  .00048308  00000+0  17516-2 0  9995
2 67033  42.9976 322.7622 0001600 267.2682  92.7986 15.27616507 16831
STARLINK-36140          
1 67034U 25294E   26081.68863708  .00032264  00000+0  11776-2 0  9995
2 67034  42.9985 324.9743 0001323 244.3734 115.6981 15.27557688 16784
STARLINK-36085          
1 67035U 25294F   26081.95275231  .00028175  00000+0  10297-2 0  9997
2 67035  42.9995 323.5110 0001767 262.1303  97.9348 15.27570798 16822
STARLINK-36125          
1 67036U 25294G   26081.72702778  .00024067  00000+0  88151-3 0  9995
2 67036  43.0000 324.3999 0001332 243.9229 116.1486 15.27570038 16798
STARLINK-35732          
1 67037U 25294H   26081.94503988  .00031863  00000+0  11625-2 0  9995
2 67037  42.9969 323.4514 0000938 272.2225  87.8520 15.27578325 16820
STARLINK-35775          
1 67038U 25294J   26081.71418254  .00031587  00000+0  11527-2 0  9996
2 67038  43.0020 324.3058 0001028 275.9025  84.1709 15.27572912 16806
