[{"OBJECT_NAME":"STARLINK-36191","OBJECT_ID":"2025-293W","EPOCH":"2026-03-22T08:54:30.574944","MEAN_MOTION":14.98341067,"ECCENTRICITY":0.00031807,"INCLINATION":70.0014,"RA_OF_ASC_NODE":62.6299,"ARG_OF_PERICENTER":270.6366,"MEAN_ANOMALY":89.4429,"EPHEMERIS_TYPE":0,"CLASSIFICATION_TYPE":"U","NORAD_CAT_ID":67023,"ELEMENT_SET_NO":999,"REV_AT_EPOCH":1678,"BSTAR":0.00046439908,"MEAN_MOTION_DOT":5.454e-5,"MEAN_MOTION_DDOT":0},{"OBJECT_NAME":"STARLINK-36192","OBJECT_ID":"2025-293X","EPOCH":"2026-03-22T22:55:39.361152","MEAN_MOTION":14.98330109,"ECCENTRICITY":0.00029586,"INCLINATION":70.0016,"RA_OF_ASC_NODE":61.0548,"ARG_OF_PERICENTER":270.7469,"MEAN_ANOMALY":89.3351,"EPHEMERIS_TYPE":0,"CLASSIFICATION_TYPE":"U","NORAD_CAT_ID":67024,"ELEMENT_SET_NO":999,"REV_AT_EPOCH":1687,"BSTAR":9.468626e-6,"MEAN_MOTION_DOT":2.0e-7,"MEAN_MOTION_DDOT":0},{"OBJECT_NAME":"STARLINK-36178","OBJECT_ID":"2025-293Y","EPOCH":"2026-03-22T22:31:36.784416","MEAN_MOTION":14.98340468,"ECCENTRICITY":0.00026428,"INCLINATION":70.0032,"RA_OF_ASC_NODE":60.9951,"ARG_OF_PERICENTER":268.5426,"MEAN_ANOMALY":91.543,"EPHEMERIS_TYPE":0,"CLASSIFICATION_TYPE":"U","NORAD_CAT_ID":67025,"ELEMENT_SET_NO":999,"REV_AT_EPOCH":1687,"BSTAR":0.00018537632,"MEAN_MOTION_DOT":2.12e-5,"MEAN_MOTION_DDOT":0},{"OBJECT_NAME":"STARLINK-36176","OBJECT_ID":"2025-293Z","EPOCH":"2026-03-22T22:01:33.400416","MEAN_MOTION":14.98335409,"ECCENTRICITY":0.00024872,"INCLINATION":70.0022,"RA_OF_ASC_NODE":60.9233,"ARG_OF_PERICENTER":271.7037,"MEAN_ANOMALY":88.3837,"EPHEMERIS_TYPE":0,"CLASSIFICATION_TYPE":"U","NORAD_CAT_ID":67026,"ELEMENT_SET_NO":999,"REV_AT_EPOCH":1686,"BSTAR":0.00035100183,"MEAN_MOTION_DOT":4.098e-5,"MEAN_MOTION_DDOT":0},{"OBJECT_NAME":"STARLINK-36171","OBJECT_ID":"2025-293AA","EPOCH":"2026-03-22T22:07:34.409856","MEAN_MOTION":14.98336578,"ECCENTRICITY":0.00021029,"INCLINATION":70.0054,"RA_OF_ASC_NODE":60.9418,"ARG_OF_PERICENTER":278.1341,"MEAN_ANOMALY":81.958,"EPHEMERIS_TYPE":0,"CLASSIFICATION_TYPE":"U","NORAD_CAT_ID":67027,"ELEMENT_SET_NO":999,"REV_AT_EPOCH":1687,"BSTAR":0.00037234004,"MEAN_MOTION_DOT":4.353e-5,"MEAN_MOTION_DDOT":0},{"OBJECT_NAME":"STARLINK-36132","OBJECT_ID":"2025-293AB","EPOCH":"2026-03-22T23:13:40.902528","MEAN_MOTION":14.9834128,"ECCENTRICITY":0.00036311,"INCLINATION":70.0026,"RA_OF_ASC_NODE":61.0974,"ARG_OF_PERICENTER":257.3513,"MEAN_ANOMALY":102.724,"EPHEMERIS_TYPE":0,"CLASSIFICATION_TYPE":"U","NORAD_CAT_ID":67028,"ELEMENT_SET_NO":999,"REV_AT_EPOCH":1687,"BSTAR":0.00044402501,"MEAN_MOTION_DOT":5.211e-5,"MEAN_MOTION_DDOT":0},{"OBJECT_NAME":"STARLINK-36190","OBJECT_ID":"2025-293AC","EPOCH":"2026-03-22T07:24:21.238560","MEAN_MOTION":14.98329689,"ECCENTRICITY":0.00030174,"INCLINATION":70.0013,"RA_OF_ASC_NODE":62.8126,"ARG_OF_PERICENTER":272.9782,"MEAN_ANOMALY":87.1032,"EPHEMERIS_TYPE":0,"CLASSIFICATION_TYPE":"U","NORAD_CAT_ID":67029,"ELEMENT_SET_NO":999,"REV_AT_EPOCH":1677,"BSTAR":-0.00047039601,"MEAN_MOTION_DOT":-5.701e-5,"MEAN_MOTION_DDOT":0},{"OBJECT_NAME":"STARLINK-36138","OBJECT_ID":"2025-294A","EPOCH":"2026-03-21T22:53:41.152992","MEAN_MOTION":15.27624873,"ECCENTRICITY":0.00016466,"INCLINATION":43.0032,"RA_OF_ASC_NODE":328.9249,"ARG_OF_PERICENTER":250.6353,"MEAN_ANOMALY":109.4321,"EPHEMERIS_TYPE":0,"CLASSIFICATION_TYPE":"U","NORAD_CAT_ID":67030,"ELEMENT_SET_NO":999,"REV_AT_EPOCH":1667,"BSTAR":0.0015610659,"MEAN_MOTION_DOT":0.00043005,"MEAN_MOTION_DDOT":0},{"OBJECT_NAME":"STARLINK-36150","OBJECT_ID":"2025-294B","EPOCH":"2026-03-22T08:53:34.211040","MEAN_MOTION":15.27587765,"ECCENTRICITY":0.00023127,"INCLINATION":42.999,"RA_OF_ASC_NODE":326.0245,"ARG_OF_PERICENTER":274.8359,"MEAN_ANOMALY":85.2229,"EPHEMERIS_TYPE":0,"CLASSIFICATION_TYPE":"U","NORAD_CAT_ID":67031,"ELEMENT_SET_NO":999,"REV_AT_EPOCH":1674,"BSTAR":0.0007936011,"MEAN_MOTION_DOT":0.00021646,"MEAN_MOTION_DDOT":0},{"OBJECT_NAME":"STARLINK-36131","OBJECT_ID":"2025-294C","EPOCH":"2026-03-22T23:17:38.046336","MEAN_MOTION":15.2758442,"ECCENTRICITY":0.0002061,"INCLINATION":43.0017,"RA_OF_ASC_NODE":322.7938,"ARG_OF_PERICENTER":274.9431,"MEAN_ANOMALY":85.1185,"EPHEMERIS_TYPE":0,"CLASSIFICATION_TYPE":"U","NORAD_CAT_ID":67032,"ELEMENT_SET_NO":999,"REV_AT_EPOCH":1683,"BSTAR":0.00031296636,"MEAN_MOTION_DOT":8.361e-5,"MEAN_MOTION_DDOT":0},{"OBJECT_NAME":"STARLINK-36137","OBJECT_ID":"2025-294D","EPOCH":"2026-03-22T23:12:05.203296","MEAN_MOTION":15.27616507,"ECCENTRICITY":0.00016005,"INCLINATION":42.9976,"RA_OF_ASC_NODE":322.7622,"ARG_OF_PERICENTER":267.2682,"MEAN_ANOMALY":92.7986,"EPHEMERIS_TYPE":0,"CLASSIFICATION_TYPE":"U","NORAD_CAT_ID":67033,"ELEMENT_SET_NO":999,"REV_AT_EPOCH":1683,"BSTAR":0.0017515821,"MEAN_MOTION_DOT":0.00048308,"MEAN_MOTION_DDOT":0},{"OBJECT_NAME":"STARLINK-36140","OBJECT_ID":"2025-294E","EPOCH":"2026-03-22T16:31:38.243712","MEAN_MOTION":15.27557688,"ECCENTRICITY":0.00013236,"INCLINATION":42.9985,"RA_OF_ASC_NODE":324.9743,"ARG_OF_PERICENTER":244.3734,"MEAN_ANOMALY":115.6981,"EPHEMERIS_TYPE":0,"CLASSIFICATION_TYPE":"U","NORAD_CAT_ID":67034,"ELEMENT_SET_NO":999,"REV_AT_EPOCH":1678,"BSTAR":0.0011776441,"MEAN_MOTION_DOT":0.00032264,"MEAN_MOTION_DDOT":0},{"OBJECT_NAME":"STARLINK-36085","OBJECT_ID":"2025-294F","EPOCH":"2026-03-22T22:51:57.799584","MEAN_MOTION":15.27570798,"ECCENTRICITY":0.0001767,"INCLINATION":42.9995,"RA_OF_ASC_NODE":323.511,"ARG_OF_PERICENTER":262.1303,"MEAN_ANOMALY":97.9348,"EPHEMERIS_TYPE":0,"CLASSIFICATION_TYPE":"U","NORAD_CAT_ID":67035,"ELEMENT_SET_NO":999,"REV_AT_EPOCH":1682,"BSTAR":0.0010297456,"MEAN_MOTION_DOT":0.00028175,"MEAN_MOTION_DDOT":0},{"OBJECT_NAME":"STARLINK-36125","OBJECT_ID":"2025-294G","EPOCH":"2026-03-22T17:26:55.200192","MEAN_MOTION":15.27570038,"ECCENTRICITY":0.00013323,"INCLINATION":43,"RA_OF_ASC_NODE":324.3999,"ARG_OF_PERICENTER":243.9229,"MEAN_ANOMALY":116.1486,"EPHEMERIS_TYPE":0,"CLASSIFICATION_TYPE":"U","NORAD_CAT_ID":67036,"ELEMENT_SET_NO":999,"REV_AT_EPOCH":1679,"BSTAR":0.00088150837,"MEAN_MOTION_DOT":0.00024067,"MEAN_MOTION_DDOT":0},{"OBJECT_NAME":"STARLINK-35732","OBJECT_ID":"2025-294H","EPOCH":"2026-03-22T22:40:51.445632","MEAN_MOTION":15.27578325,"ECCENTRICITY":9.381e-5,"INCLINATION":42.9969,"RA_OF_ASC_NODE":323.4514,"ARG_OF_PERICENTER":272.2225,"MEAN_ANOMALY":87.852,"EPHEMERIS_TYPE":0,"CLASSIFICATION_TYPE":"U","NORAD_CAT_ID":67037,"ELEMENT_SET_NO":999,"REV_AT_EPOCH":1682,"BSTAR":0.0011624612,"MEAN_MOTION_DOT":0.00031863,"MEAN_MOTION_DDOT":0},{"OBJECT_NAME":"STARLINK-35775","OBJECT_ID":"2025-294J","EPOCH":"2026-03-22T17:08:25.371456","MEAN_MOTION":15.27572912,"ECCENTRICITY":0.00010288,"INCLINATION":43.002,"RA_OF_ASC_NODE":324.3058,"ARG_OF_PERICENTER":275.9025,"MEAN_ANOMALY":84.1709,"EPHEMERIS_TYPE":0,"CLASSIFICATION_TYPE":"U","NORAD_CAT_ID":67038,"ELEMENT_SET_NO":999,"REV_AT_EPOCH":1680,"BSTAR":0.0011527208,"MEAN_MOTION_DOT":0.00031587,"MEAN_MOTION_DDOT":0}]
